<?xml version='1.0' encoding='utf-8'?>
<osm generator="OSM Conflator 1.3.1" version="0.6"><changeset><tag k="type" v="import"/><tag k="source" v="PCIV"/><tag k="created_by" v="OSM Conflator 1.3.1"/></changeset><node id="-1" version="1" lat="45.902831" lon="12.586308"><tag k="assembly_point:earthquake" v="yes"/><tag k="emergency" v="assembly_point"/><tag k="ref" v="2"/><tag k="name" v="Parcheggio Privato Via Maron"/></node><node id="-2" version="1" lat="45.893031" lon="12.589869"><tag k="assembly_point:earthquake" v="yes"/><tag k="emergency" v="assembly_point"/><tag k="ref" v="3"/><tag k="name" v="Area Verde Sede ANA"/></node><node id="-3" version="1" lat="45.893283" lon="12.596339"><tag k="assembly_point:earthquake" v="yes"/><tag k="emergency" v="assembly_point"/><tag k="ref" v="4"/><tag k="name" v="Piazza Wanda Meyer"/></node><node id="-4" version="1" lat="45.886683" lon="12.600628"><tag k="assembly_point:earthquake" v="yes"/><tag k="emergency" v="assembly_point"/><tag k="ref" v="6"/><tag k="name" v="Parcheggio Chiesa San Giovanni"/></node><node id="-5" version="1" lat="45.870106" lon="12.592742"><tag k="assembly_point:earthquake" v="yes"/><tag k="emergency" v="assembly_point"/><tag k="ref" v="8"/><tag k="name" v="Parcheggio Borgata Peressine"/></node><node id="-6" version="1" lat="45.862158" lon="12.57025"><tag k="assembly_point:earthquake" v="yes"/><tag k="emergency" v="assembly_point"/><tag k="ref" v="10"/><tag k="name" v="Area Pro Loco Villanova"/></node><node id="-7" version="1" lat="45.871633" lon="12.564458"><tag k="assembly_point:earthquake" v="yes"/><tag k="emergency" v="assembly_point"/><tag k="ref" v="12"/><tag k="name" v="Parcheggio BAR &quot;5 punto 0&quot;"/></node><node id="-8" version="1" lat="45.843597" lon="12.566006"><tag k="assembly_point:earthquake" v="yes"/><tag k="emergency" v="assembly_point"/><tag k="ref" v="13"/><tag k="name" v="Parcheggio Piazza Mazzini"/></node><node id="-9" version="1" lat="45.881408" lon="12.56935"><tag k="assembly_point:earthquake" v="yes"/><tag k="emergency" v="assembly_point"/><tag k="ref" v="14"/><tag k="name" v="Parcheggio Via Gorizia"/></node><node id="-10" version="1" lat="45.895706" lon="12.600081"><tag k="assembly_point:earthquake" v="yes"/><tag k="emergency" v="assembly_point"/><tag k="ref" v="15"/><tag k="name" v="Parcheggio Poliambulatorio"/></node><node id="-11" version="1" lat="45.864983" lon="12.569142"><tag k="assembly_point:earthquake" v="yes"/><tag k="emergency" v="assembly_point"/><tag k="ref" v="16"/><tag k="name" v="Parcheggio scuola elementare di Villanova"/></node><node id="-12" version="1" lat="45.88165" lon="12.584864"><tag k="assembly_point:earthquake" v="yes"/><tag k="emergency" v="assembly_point"/><tag k="ref" v="17"/><tag k="name" v="Parcheggio Stadio comunale e PalaPrata"/></node><node id="-13" version="1" lat="45.902814" lon="12.600325"><tag k="assembly_point:earthquake" v="yes"/><tag k="emergency" v="assembly_point"/><tag k="ref" v="18"/><tag k="name" v="Area verde - Pluriuso"/></node><node id="-14" version="1" lat="46.071511" lon="12.584725"><tag k="assembly_point:earthquake" v="yes"/><tag k="emergency" v="assembly_point"/><tag k="ref" v="1"/><tag k="name" v="parcheggio campo sportivo"/></node><node id="-15" version="1" lat="46.119483" lon="12.613017"><tag k="assembly_point:earthquake" v="yes"/><tag k="emergency" v="assembly_point"/><tag k="ref" v="2"/><tag k="name" v="piazzale ufficio postale Giais"/></node><node id="-16" version="1" lat="46.094778" lon="12.595142"><tag k="assembly_point:earthquake" v="yes"/><tag k="emergency" v="assembly_point"/><tag k="ref" v="3"/><tag k="name" v="piazzale Marsure"/></node><node id="-17" version="1" lat="46.071467" lon="12.588875"><tag k="assembly_point:earthquake" v="yes"/><tag k="emergency" v="assembly_point"/><tag k="ref" v="4"/><tag k="name" v="piazzale Trento"/></node><node id="-18" version="1" lat="46.066428" lon="12.589256"><tag k="assembly_point:earthquake" v="yes"/><tag k="emergency" v="assembly_point"/><tag k="ref" v="5"/><tag k="name" v="piazzale coop"/></node><node id="-19" version="1" lat="46.059489" lon="12.574661"><tag k="assembly_point:earthquake" v="yes"/><tag k="emergency" v="assembly_point"/><tag k="ref" v="6"/><tag k="name" v="parcheggio scuole Villotta"/></node><node id="-20" version="1" lat="46.053528" lon="12.564747"><tag k="assembly_point:earthquake" v="yes"/><tag k="emergency" v="assembly_point"/><tag k="ref" v="7"/><tag k="name" v="parcheggi via Colmello Fabbro Castello"/></node><node id="-21" version="1" lat="46.111439" lon="12.524164"><tag k="assembly_point:earthquake" v="yes"/><tag k="emergency" v="assembly_point"/><tag k="ref" v="8"/><tag k="name" v="piazzale Martiri della Libertà"/></node><node id="-22" version="1" lat="46.098897" lon="12.5913"><tag k="assembly_point:earthquake" v="yes"/><tag k="emergency" v="assembly_point"/><tag k="ref" v="10"/><tag k="name" v="grave Marsure"/></node><node id="-23" version="1" lat="46.116914" lon="12.603864"><tag k="assembly_point:earthquake" v="yes"/><tag k="emergency" v="assembly_point"/><tag k="ref" v="11"/><tag k="name" v="Santa Barbara"/></node><node id="-24" version="1" lat="46.082975" lon="12.5767"><tag k="assembly_point:earthquake" v="yes"/><tag k="emergency" v="assembly_point"/><tag k="ref" v="12"/><tag k="name" v="Piazza Costa"/></node><node id="-25" version="1" lat="46.085233" lon="12.591308"><tag k="assembly_point:earthquake" v="yes"/><tag k="emergency" v="assembly_point"/><tag k="ref" v="13"/><tag k="name" v="Baroz"/></node><node id="-26" version="1" lat="46.424161" lon="12.579414"><tag k="assembly_point:earthquake" v="yes"/><tag k="emergency" v="assembly_point"/><tag k="ref" v="1"/><tag k="name" v="Piazza Centrale"/></node><node id="-27" version="1" lat="46.419992" lon="12.582633"><tag k="assembly_point:earthquake" v="yes"/><tag k="emergency" v="assembly_point"/><tag k="ref" v="2"/><tag k="name" v="Parcheggio fronte stazione VVF"/></node><node id="-28" version="1" lat="46.4122" lon="12.589044"><tag k="assembly_point:earthquake" v="yes"/><tag k="emergency" v="assembly_point"/><tag k="ref" v="3"/><tag k="name" v="Andrazza"/></node><node id="-29" version="1" lat="45.968586" lon="12.448239"><tag k="assembly_point:earthquake" v="yes"/><tag k="emergency" v="assembly_point"/><tag k="ref" v="1"/><tag k="name" v="Piazza Martiri Garibaldini"/></node><node id="-30" version="1" lat="45.964431" lon="12.435578"><tag k="assembly_point:earthquake" v="yes"/><tag k="emergency" v="assembly_point"/><tag k="ref" v="4"/><tag k="name" v="Parcheggio scuole Stevenà"/></node><node id="-31" version="1" lat="45.983653" lon="12.475364"><tag k="assembly_point:earthquake" v="yes"/><tag k="emergency" v="assembly_point"/><tag k="ref" v="5"/><tag k="name" v="Parcheggio Chiesa"/></node><node id="-32" version="1" lat="45.966006" lon="12.448483"><tag k="assembly_point:earthquake" v="yes"/><tag k="emergency" v="assembly_point"/><tag k="ref" v="10"/><tag k="name" v="Via Trieste"/></node><node id="-33" version="1" lat="45.99015" lon="12.467553"><tag k="assembly_point:earthquake" v="yes"/><tag k="emergency" v="assembly_point"/><tag k="ref" v="11"/><tag k="name" v="Via Carso"/></node><node id="-34" version="1" lat="45.991661" lon="12.46165"><tag k="assembly_point:earthquake" v="yes"/><tag k="emergency" v="assembly_point"/><tag k="ref" v="12"/><tag k="name" v="Parcheggio via XXV Aprile"/></node><node id="-35" version="1" lat="45.968592" lon="12.453969"><tag k="assembly_point:earthquake" v="yes"/><tag k="emergency" v="assembly_point"/><tag k="ref" v="13"/><tag k="name" v="via Giovanni Falcone"/></node><node id="-36" version="1" lat="46.016492" lon="12.639033"><tag k="assembly_point:earthquake" v="yes"/><tag k="emergency" v="assembly_point"/><tag k="ref" v="1"/><tag k="name" v="Sede Comunale"/></node><node id="-37" version="1" lat="46.041728" lon="12.533511"><tag k="assembly_point:earthquake" v="yes"/><tag k="emergency" v="assembly_point"/><tag k="ref" v="1"/><tag k="name" v="Sede Protezione Civile Budoia"/></node><node id="-38" version="1" lat="46.274464" lon="12.370997"><tag k="assembly_point:earthquake" v="yes"/><tag k="emergency" v="assembly_point"/><tag k="ref" v="1"/><tag k="name" v="Parcheggio Sciariàda"/></node><node id="-39" version="1" lat="46.271622" lon="12.334617"><tag k="assembly_point:earthquake" v="yes"/><tag k="emergency" v="assembly_point"/><tag k="ref" v="2"/><tag k="name" v="Parcheggio via Motta"/></node><node id="-40" version="1" lat="46.27895" lon="12.382236"><tag k="assembly_point:earthquake" v="yes"/><tag k="emergency" v="assembly_point"/><tag k="ref" v="3"/><tag k="name" v="Parcheggio San Martino"/></node><node id="-41" version="1" lat="46.201853" lon="12.612569"><tag k="assembly_point:earthquake" v="yes"/><tag k="emergency" v="assembly_point"/><tag k="ref" v="1"/><tag k="name" v="AREA DI ATTESA LOC. PALLEVA"/></node><node id="-42" version="1" lat="46.202614" lon="12.600961"><tag k="assembly_point:earthquake" v="yes"/><tag k="emergency" v="assembly_point"/><tag k="ref" v="3"/><tag k="name" v="VIA ALCHEDA, CORTILE LATTERIA"/></node><node id="-43" version="1" lat="46.196211" lon="12.630639"><tag k="assembly_point:earthquake" v="yes"/><tag k="emergency" v="assembly_point"/><tag k="ref" v="4"/><tag k="name" v="VIA BOSPLANS,incrocio"/></node><node id="-44" version="1" lat="46.199386" lon="12.610644"><tag k="assembly_point:earthquake" v="yes"/><tag k="emergency" v="assembly_point"/><tag k="ref" v="5"/><tag k="name" v="PARCHEGGIO CIMITERO, VIA N. SAURO"/></node><node id="-45" version="1" lat="46.201253" lon="12.616944"><tag k="assembly_point:earthquake" v="yes"/><tag k="emergency" v="assembly_point"/><tag k="ref" v="6"/><tag k="name" v="CASA ANZIANI, VIA CESARE BATTISTI, 75"/></node><node id="-46" version="1" lat="46.203228" lon="12.624917"><tag k="assembly_point:earthquake" v="yes"/><tag k="emergency" v="assembly_point"/><tag k="ref" v="7"/><tag k="name" v="CHIESETTA, VIA SOTT'ANZAS"/></node><node id="-47" version="1" lat="46.197458" lon="12.604611"><tag k="assembly_point:earthquake" v="yes"/><tag k="emergency" v="assembly_point"/><tag k="ref" v="8"/><tag k="name" v="FONTANA, VIA PRAPIERO"/></node><node id="-48" version="1" lat="45.965989" lon="12.514464"><tag k="assembly_point:earthquake" v="yes"/><tag k="emergency" v="assembly_point"/><tag k="ref" v="1"/><tag k="name" v="Parco Col Alto"/></node><node id="-49" version="1" lat="45.963678" lon="12.532253"><tag k="assembly_point:earthquake" v="yes"/><tag k="emergency" v="assembly_point"/><tag k="ref" v="2"/><tag k="name" v="Via Venzone"/></node><node id="-50" version="1" lat="45.956694" lon="12.5022"><tag k="assembly_point:earthquake" v="yes"/><tag k="emergency" v="assembly_point"/><tag k="ref" v="4"/><tag k="name" v="Area Monumento dei Caduti"/></node><node id="-51" version="1" lat="45.948825" lon="12.49795"><tag k="assembly_point:earthquake" v="yes"/><tag k="emergency" v="assembly_point"/><tag k="ref" v="5"/><tag k="name" v="Piazza Libertà-Stazione FF.SS."/></node><node id="-52" version="1" lat="45.947742" lon="12.51205"><tag k="assembly_point:earthquake" v="yes"/><tag k="emergency" v="assembly_point"/><tag k="ref" v="7"/><tag k="name" v="Area via Abruzzi"/></node><node id="-53" version="1" lat="45.911564" lon="12.518519"><tag k="assembly_point:earthquake" v="yes"/><tag k="emergency" v="assembly_point"/><tag k="ref" v="8"/><tag k="name" v="Parco Brenelli"/></node><node id="-54" version="1" lat="45.925758" lon="12.522606"><tag k="assembly_point:earthquake" v="yes"/><tag k="emergency" v="assembly_point"/><tag k="ref" v="10"/><tag k="name" v="Piazzola Ecologica"/></node><node id="-55" version="1" lat="45.954533" lon="12.489347"><tag k="assembly_point:earthquake" v="yes"/><tag k="emergency" v="assembly_point"/><tag k="ref" v="11"/><tag k="name" v="Parco via Po"/></node><node id="-56" version="1" lat="45.957503" lon="12.507708"><tag k="assembly_point:earthquake" v="yes"/><tag k="emergency" v="assembly_point"/><tag k="ref" v="12"/><tag k="name" v="Parco Balliana"/></node><node id="-57" version="1" lat="45.945419" lon="12.502883"><tag k="assembly_point:earthquake" v="yes"/><tag k="emergency" v="assembly_point"/><tag k="ref" v="13"/><tag k="name" v="Area esterna Cimitero S. Odorico"/></node><node id="-58" version="1" lat="45.965386" lon="12.526897"><tag k="assembly_point:earthquake" v="yes"/><tag k="emergency" v="assembly_point"/><tag k="ref" v="14"/><tag k="name" v="Area Sosta Complesso Scolastico San Giovanni del Tempio"/></node><node id="-59" version="1" lat="45.957169" lon="12.501428"><tag k="assembly_point:earthquake" v="yes"/><tag k="emergency" v="assembly_point"/><tag k="ref" v="25"/><tag k="name" v="Parcheggio Piccin"/></node><node id="-60" version="1" lat="45.959164" lon="12.517625"><tag k="assembly_point:earthquake" v="yes"/><tag k="emergency" v="assembly_point"/><tag k="ref" v="26"/><tag k="name" v="Parcheggio campo sportivo XXV Aprile"/></node><node id="-61" version="1" lat="45.966144" lon="12.531156"><tag k="assembly_point:earthquake" v="yes"/><tag k="emergency" v="assembly_point"/><tag k="ref" v="28"/><tag k="name" v="Area Via Latisana"/></node><node id="-62" version="1" lat="45.964528" lon="12.533806"><tag k="assembly_point:earthquake" v="yes"/><tag k="emergency" v="assembly_point"/><tag k="ref" v="29"/><tag k="name" v="Area Via Pordenone"/></node><node id="-63" version="1" lat="45.947078" lon="12.510989"><tag k="assembly_point:earthquake" v="yes"/><tag k="emergency" v="assembly_point"/><tag k="ref" v="31"/><tag k="name" v="Area via Val d'Aosta"/></node><node id="-64" version="1" lat="45.956264" lon="12.485617"><tag k="assembly_point:earthquake" v="yes"/><tag k="emergency" v="assembly_point"/><tag k="ref" v="33"/><tag k="name" v="Area Via Gobetti"/></node><node id="-65" version="1" lat="45.942358" lon="12.516186"><tag k="assembly_point:earthquake" v="yes"/><tag k="emergency" v="assembly_point"/><tag k="ref" v="35"/><tag k="name" v="Area Artigianale Geromina"/></node><node id="-66" version="1" lat="45.930439" lon="12.507992"><tag k="assembly_point:earthquake" v="yes"/><tag k="emergency" v="assembly_point"/><tag k="ref" v="36"/><tag k="name" v="Area Via dei Tigli"/></node><node id="-67" version="1" lat="45.961267" lon="12.500772"><tag k="assembly_point:earthquake" v="yes"/><tag k="emergency" v="assembly_point"/><tag k="ref" v="38"/><tag k="name" v="Area via Dall'Ava"/></node><node id="-68" version="1" lat="45.931419" lon="12.508311"><tag k="assembly_point:earthquake" v="yes"/><tag k="emergency" v="assembly_point"/><tag k="ref" v="46"/><tag k="name" v="Area via Cavolano"/></node><node id="-69" version="1" lat="45.949633" lon="12.480036"><tag k="assembly_point:earthquake" v="yes"/><tag k="emergency" v="assembly_point"/><tag k="ref" v="57"/><tag k="name" v="area via Vicenza"/></node><node id="-70" version="1" lat="45.947503" lon="12.474031"><tag k="assembly_point:earthquake" v="yes"/><tag k="emergency" v="assembly_point"/><tag k="ref" v="58"/><tag k="name" v="Area esterna scuola infanzia Archimede"/></node><node id="-71" version="1" lat="45.936561" lon="12.475317"><tag k="assembly_point:earthquake" v="yes"/><tag k="emergency" v="assembly_point"/><tag k="ref" v="60"/><tag k="name" v="Area Vistorta"/></node><node id="-72" version="1" lat="45.961667" lon="12.492558"><tag k="assembly_point:earthquake" v="yes"/><tag k="emergency" v="assembly_point"/><tag k="ref" v="61"/><tag k="name" v="Area Via Ronche"/></node><node id="-73" version="1" lat="45.935967" lon="12.505142"><tag k="assembly_point:earthquake" v="yes"/><tag k="emergency" v="assembly_point"/><tag k="ref" v="62"/><tag k="name" v="Area Schiavoi"/></node><node id="-74" version="1" lat="45.951258" lon="12.490481"><tag k="assembly_point:earthquake" v="yes"/><tag k="emergency" v="assembly_point"/><tag k="ref" v="63"/><tag k="name" v="Area via Misurina"/></node><node id="-75" version="1" lat="46.024331" lon="12.512622"><tag k="assembly_point:earthquake" v="yes"/><tag k="emergency" v="assembly_point"/><tag k="ref" v="1"/><tag k="name" v="Parcheggio Chiesa S. Giovanni"/></node><node id="-76" version="1" lat="46.025944" lon="12.509269"><tag k="assembly_point:earthquake" v="yes"/><tag k="emergency" v="assembly_point"/><tag k="ref" v="2"/><tag k="name" v="Via Pordenone"/></node><node id="-77" version="1" lat="46.035875" lon="12.499881"><tag k="assembly_point:earthquake" v="yes"/><tag k="emergency" v="assembly_point"/><tag k="ref" v="3"/><tag k="name" v="Scuole Medie Polcenigo"/></node><node id="-78" version="1" lat="46.023036" lon="12.479042"><tag k="assembly_point:earthquake" v="yes"/><tag k="emergency" v="assembly_point"/><tag k="ref" v="4"/><tag k="name" v="Parcheggio Santissima"/></node><node id="-79" version="1" lat="46.032119" lon="12.49015"><tag k="assembly_point:earthquake" v="yes"/><tag k="emergency" v="assembly_point"/><tag k="ref" v="5"/><tag k="name" v="Chiesa Coltura"/></node><node id="-80" version="1" lat="46.046239" lon="12.492378"><tag k="assembly_point:earthquake" v="yes"/><tag k="emergency" v="assembly_point"/><tag k="ref" v="6"/><tag k="name" v="Mezzomonte"/></node><node id="-81" version="1" lat="46.029014" lon="12.498469"><tag k="assembly_point:earthquake" v="yes"/><tag k="emergency" v="assembly_point"/><tag k="ref" v="7"/><tag k="name" v="Parcheggio San Rocco"/></node><node id="-82" version="1" lat="46.013406" lon="12.474783"><tag k="assembly_point:earthquake" v="yes"/><tag k="emergency" v="assembly_point"/><tag k="ref" v="8"/><tag k="name" v="Località Valle"/></node><node id="-83" version="1" lat="46.019403" lon="12.511303"><tag k="assembly_point:earthquake" v="yes"/><tag k="emergency" v="assembly_point"/><tag k="ref" v="9"/><tag k="name" v="Mobilificio MOMO"/></node><node id="-84" version="1" lat="46.007847" lon="12.507464"><tag k="assembly_point:earthquake" v="yes"/><tag k="emergency" v="assembly_point"/><tag k="ref" v="10"/><tag k="name" v="Ristorante alla Fontaniva"/></node><node id="-85" version="1" lat="46.029756" lon="12.517769"><tag k="assembly_point:earthquake" v="yes"/><tag k="emergency" v="assembly_point"/><tag k="ref" v="11"/><tag k="name" v="Parcheggio ex Bar da Betty"/></node><node id="-86" version="1" lat="46.037225" lon="12.496878"><tag k="assembly_point:earthquake" v="yes"/><tag k="emergency" v="assembly_point"/><tag k="ref" v="12"/><tag k="name" v="Parcheggio Gorgazzo"/></node><node id="-87" version="1" lat="46.038128" lon="12.504356"><tag k="assembly_point:earthquake" v="yes"/><tag k="emergency" v="assembly_point"/><tag k="ref" v="13"/><tag k="name" v="Via Mariet"/></node><node id="-88" version="1" lat="46.032639" lon="12.503639"><tag k="assembly_point:earthquake" v="yes"/><tag k="emergency" v="assembly_point"/><tag k="ref" v="14"/><tag k="name" v="parco Via Polcenigo presso Bravin Rino"/></node><node id="-89" version="1" lat="46.008911" lon="12.618044"><tag k="assembly_point:earthquake" v="yes"/><tag k="emergency" v="assembly_point"/><tag k="ref" v="3"/><tag k="name" v="Parco presso la Sede Municipale"/></node><node id="-90" version="1" lat="46.0262" lon="12.620689"><tag k="assembly_point:earthquake" v="yes"/><tag k="emergency" v="assembly_point"/><tag k="ref" v="4"/><tag k="name" v="Parcheggio del Centro Commerciale"/></node><node id="-91" version="1" lat="46.0178" lon="12.620647"><tag k="assembly_point:earthquake" v="yes"/><tag k="emergency" v="assembly_point"/><tag k="ref" v="8"/><tag k="name" v="Slargo laterale Via Mazzini"/></node><node id="-92" version="1" lat="46.013211" lon="12.614875"><tag k="assembly_point:earthquake" v="yes"/><tag k="emergency" v="assembly_point"/><tag k="ref" v="9"/><tag k="name" v="Area verde di via C. Colombo"/></node><node id="-93" version="1" lat="46.014961" lon="12.609731"><tag k="assembly_point:earthquake" v="yes"/><tag k="emergency" v="assembly_point"/><tag k="ref" v="10"/><tag k="name" v="Area verde di via Marinelli"/></node><node id="-94" version="1" lat="46.010822" lon="12.622153"><tag k="assembly_point:earthquake" v="yes"/><tag k="emergency" v="assembly_point"/><tag k="ref" v="11"/><tag k="name" v="Parcheggio cimitero"/></node><node id="-95" version="1" lat="46.007575" lon="12.615383"><tag k="assembly_point:earthquake" v="yes"/><tag k="emergency" v="assembly_point"/><tag k="ref" v="12"/><tag k="name" v="Area verde Via Carducci di fronte alla palestra comunale"/></node><node id="-96" version="1" lat="46.007969" lon="12.621022"><tag k="assembly_point:earthquake" v="yes"/><tag k="emergency" v="assembly_point"/><tag k="ref" v="13"/><tag k="name" v="Parcheggio Giovanni Falcone - pressi Sede Associazioni"/></node><node id="-97" version="1" lat="46.004733" lon="12.613442"><tag k="assembly_point:earthquake" v="yes"/><tag k="emergency" v="assembly_point"/><tag k="ref" v="14"/><tag k="name" v="Parco La Radice Quadrata di Via Gortanutti"/></node><node id="-98" version="1" lat="46.001142" lon="12.612761"><tag k="assembly_point:earthquake" v="yes"/><tag k="emergency" v="assembly_point"/><tag k="ref" v="16"/><tag k="name" v="Area verde di Via Grigoletti"/></node><node id="-99" version="1" lat="45.999436" lon="12.614592"><tag k="assembly_point:earthquake" v="yes"/><tag k="emergency" v="assembly_point"/><tag k="ref" v="17"/><tag k="name" v="Area verde di via San Sebastiano"/></node><node id="-100" version="1" lat="45.986944" lon="12.618264"><tag k="assembly_point:earthquake" v="yes"/><tag k="emergency" v="assembly_point"/><tag k="ref" v="18"/><tag k="name" v="Area verde e parcheggio delal Zona Artigianale"/></node><node id="-101" version="1" lat="45.983908" lon="12.613983"><tag k="assembly_point:earthquake" v="yes"/><tag k="emergency" v="assembly_point"/><tag k="ref" v="19"/><tag k="name" v="Area verde della Zona Industriale"/></node><node id="-102" version="1" lat="45.978458" lon="12.618325"><tag k="assembly_point:earthquake" v="yes"/><tag k="emergency" v="assembly_point"/><tag k="ref" v="20"/><tag k="name" v="Parcheggi in località Borgonuovo"/></node><node id="-103" version="1" lat="46.003778" lon="12.614083"><tag k="assembly_point:earthquake" v="yes"/><tag k="emergency" v="assembly_point"/><tag k="ref" v="21"/><tag k="name" v="Parcheggio in via Viola"/></node><node id="-104" version="1" lat="45.999719" lon="12.606281"><tag k="assembly_point:earthquake" v="yes"/><tag k="emergency" v="assembly_point"/><tag k="ref" v="22"/><tag k="name" v="Parcheggio e area verede fronte ingresso ditta Cave dell'Agnese"/></node><node id="-105" version="1" lat="46.012511" lon="12.591472"><tag k="assembly_point:earthquake" v="yes"/><tag k="emergency" v="assembly_point"/><tag k="ref" v="23"/><tag k="name" v="Area Verde lungo SP 31 in prossimità della rotonda in località Tornielli"/></node><node id="-106" version="1" lat="46.008789" lon="12.611489"><tag k="assembly_point:earthquake" v="yes"/><tag k="emergency" v="assembly_point"/><tag k="ref" v="24"/><tag k="name" v="Area verde di via Del Gelso"/></node><node id="-107" version="1" lat="46.006228" lon="12.619425"><tag k="assembly_point:earthquake" v="yes"/><tag k="emergency" v="assembly_point"/><tag k="ref" v="25"/><tag k="name" v="Parcheggio di via 3 Ottobre"/></node><node id="-108" version="1" lat="46.002947" lon="12.6181"><tag k="assembly_point:earthquake" v="yes"/><tag k="emergency" v="assembly_point"/><tag k="ref" v="26"/><tag k="name" v="Parcheggio &quot;P. Borsellino&quot; di via XX Settembre"/></node><node id="-109" version="1" lat="46.150536" lon="12.648675"><tag k="assembly_point:earthquake" v="yes"/><tag k="emergency" v="assembly_point"/><tag k="ref" v="8"/><tag k="name" v="PIAZZA IV NOVEMBRE"/></node><node id="-110" version="1" lat="46.153372" lon="12.64495"><tag k="assembly_point:earthquake" v="yes"/><tag k="emergency" v="assembly_point"/><tag k="ref" v="10"/><tag k="name" v="BORGO ALZETTA"/></node><node id="-111" version="1" lat="46.143772" lon="12.636594"><tag k="assembly_point:earthquake" v="yes"/><tag k="emergency" v="assembly_point"/><tag k="ref" v="13"/><tag k="name" v="CENTRO COMUNITARIO MALNISIO"/></node><node id="-112" version="1" lat="46.139261" lon="12.632086"><tag k="assembly_point:earthquake" v="yes"/><tag k="emergency" v="assembly_point"/><tag k="ref" v="31"/><tag k="name" v="VIA GIAIS"/></node><node id="-113" version="1" lat="46.143231" lon="12.630944"><tag k="assembly_point:earthquake" v="yes"/><tag k="emergency" v="assembly_point"/><tag k="ref" v="32"/><tag k="name" v="LARGO GARIBALDI - MALNISIO -"/></node><node id="-114" version="1" lat="46.143464" lon="12.633369"><tag k="assembly_point:earthquake" v="yes"/><tag k="emergency" v="assembly_point"/><tag k="ref" v="42"/><tag k="name" v="Incrocio Via Alessandro Volta e Via Alfieri"/></node><node id="-115" version="1" lat="46.145883" lon="12.642281"><tag k="assembly_point:earthquake" v="yes"/><tag k="emergency" v="assembly_point"/><tag k="ref" v="47"/><tag k="name" v="PARCHEGGIO CIMITERO - MALNISIO -"/></node><node id="-116" version="1" lat="46.139728" lon="12.637194"><tag k="assembly_point:earthquake" v="yes"/><tag k="emergency" v="assembly_point"/><tag k="ref" v="49"/><tag k="name" v="VIA MACOR-ALDO MORO"/></node><node id="-117" version="1" lat="46.286678" lon="12.439542"><tag k="assembly_point:earthquake" v="yes"/><tag k="emergency" v="assembly_point"/><tag k="ref" v="3"/><tag k="name" v="PARCHEGGIO ANTISTANTE CASERMA CARABINIERI"/></node><node id="-118" version="1" lat="46.284717" lon="12.446017"><tag k="assembly_point:earthquake" v="yes"/><tag k="emergency" v="assembly_point"/><tag k="ref" v="4"/><tag k="name" v="SAN FLORIANO"/></node><node id="-119" version="1" lat="46.286489" lon="12.434889"><tag k="assembly_point:earthquake" v="yes"/><tag k="emergency" v="assembly_point"/><tag k="ref" v="5"/><tag k="name" v="STRADA PRADA"/></node><node id="-120" version="1" lat="46.29075" lon="12.437894"><tag k="assembly_point:earthquake" v="yes"/><tag k="emergency" v="assembly_point"/><tag k="ref" v="6"/><tag k="name" v="CASA PER ANZIANI"/></node><node id="-121" version="1" lat="45.993208" lon="12.464739"><tag k="assembly_point:earthquake" v="yes"/><tag k="emergency" v="assembly_point"/><tag k="ref" v="8"/><tag k="name" v="Parcheggio via Montello"/></node><node id="-122" version="1" lat="45.951692" lon="12.447392"><tag k="assembly_point:earthquake" v="yes"/><tag k="emergency" v="assembly_point"/><tag k="ref" v="9"/><tag k="name" v="Parcheggio via Lenisa a Fratta"/></node><node id="-123" version="1" lat="45.967217" lon="12.433556"><tag k="assembly_point:earthquake" v="yes"/><tag k="emergency" v="assembly_point"/><tag k="ref" v="14"/><tag k="name" v="Piazza del Carmine"/></node><node id="-124" version="1" lat="45.847428" lon="12.629628"><tag k="assembly_point:earthquake" v="yes"/><tag k="emergency" v="assembly_point"/><tag k="ref" v="1"/><tag k="name" v="Campo Sportivo Comunale &quot;Sergio Pase&quot;"/></node><node id="-125" version="1" lat="45.889278" lon="12.612458"><tag k="assembly_point:earthquake" v="yes"/><tag k="emergency" v="assembly_point"/><tag k="ref" v="2"/><tag k="name" v="Campo Sportivo Comunale di Visinale"/></node><node id="-126" version="1" lat="45.845403" lon="12.578253"><tag k="assembly_point:earthquake" v="yes"/><tag k="emergency" v="assembly_point"/><tag k="ref" v="3"/><tag k="name" v="Parcheggio Chiesa Rivarotta"/></node><node id="-127" version="1" lat="45.874442" lon="12.612231"><tag k="assembly_point:earthquake" v="yes"/><tag k="emergency" v="assembly_point"/><tag k="ref" v="4"/><tag k="name" v="Parcheggio Chiesa Cecchini"/></node><node id="-128" version="1" lat="45.849831" lon="12.626581"><tag k="assembly_point:earthquake" v="yes"/><tag k="emergency" v="assembly_point"/><tag k="ref" v="5"/><tag k="name" v="Piazza Alcide De Gasperi"/></node><node id="-129" version="1" lat="45.851219" lon="12.627244"><tag k="assembly_point:earthquake" v="yes"/><tag k="emergency" v="assembly_point"/><tag k="ref" v="6"/><tag k="name" v="Parcheggio Comune"/></node><node id="-130" version="1" lat="45.846356" lon="12.61525"><tag k="assembly_point:earthquake" v="yes"/><tag k="emergency" v="assembly_point"/><tag k="ref" v="7"/><tag k="name" v="Area Parcheggio Rist. Da Giorgio"/></node><node id="-131" version="1" lat="45.872411" lon="12.609883"><tag k="assembly_point:earthquake" v="yes"/><tag k="emergency" v="assembly_point"/><tag k="ref" v="8"/><tag k="name" v="Parcheggio Scuole Cecchini"/></node><node id="-132" version="1" lat="45.901567" lon="12.609425"><tag k="assembly_point:earthquake" v="yes"/><tag k="emergency" v="assembly_point"/><tag k="ref" v="9"/><tag k="name" v="Parcheggio Visinale di Sopra"/></node><node id="-133" version="1" lat="45.868906" lon="12.648708"><tag k="assembly_point:earthquake" v="yes"/><tag k="emergency" v="assembly_point"/><tag k="ref" v="10"/><tag k="name" v="Lottizzazione Borgo Sant'Anna"/></node><node id="-134" version="1" lat="45.828419" lon="12.589386"><tag k="assembly_point:earthquake" v="yes"/><tag k="emergency" v="assembly_point"/><tag k="ref" v="12"/><tag k="name" v="Parcheggio Trattoria Quadrifoglio"/></node><node id="-135" version="1" lat="46.190769" lon="12.565375"><tag k="assembly_point:earthquake" v="yes"/><tag k="emergency" v="assembly_point"/><tag k="ref" v="1"/><tag k="name" v="Area d'attesa Riva Lago"/></node><node id="-136" version="1" lat="45.904531" lon="12.536481"><tag k="assembly_point:earthquake" v="yes"/><tag k="emergency" v="assembly_point"/><tag k="ref" v="1"/><tag k="name" v="Area verde via A. Volta"/></node><node id="-137" version="1" lat="45.903164" lon="12.531061"><tag k="assembly_point:earthquake" v="yes"/><tag k="emergency" v="assembly_point"/><tag k="ref" v="2"/><tag k="name" v="Area verde scuola media"/></node><node id="-138" version="1" lat="45.896897" lon="12.556353"><tag k="assembly_point:earthquake" v="yes"/><tag k="emergency" v="assembly_point"/><tag k="ref" v="4"/><tag k="name" v="Area mercato Maron"/></node><node id="-139" version="1" lat="45.875483" lon="12.542361"><tag k="assembly_point:earthquake" v="yes"/><tag k="emergency" v="assembly_point"/><tag k="ref" v="7"/><tag k="name" v="Area esterna cimitero di San Cassiano"/></node><node id="-140" version="1" lat="45.906239" lon="12.530375"><tag k="assembly_point:earthquake" v="yes"/><tag k="emergency" v="assembly_point"/><tag k="ref" v="9"/><tag k="name" v="Via Marconi"/></node><node id="-141" version="1" lat="45.89475" lon="12.545953"><tag k="assembly_point:earthquake" v="yes"/><tag k="emergency" v="assembly_point"/><tag k="ref" v="12"/><tag k="name" v="Parcherggio campo sportivo Maron"/></node><node id="-142" version="1" lat="45.922264" lon="12.568672"><tag k="assembly_point:earthquake" v="yes"/><tag k="emergency" v="assembly_point"/><tag k="ref" v="13"/><tag k="name" v="Area verde Via Giovanni XXIII"/></node><node id="-143" version="1" lat="45.898817" lon="12.535858"><tag k="assembly_point:earthquake" v="yes"/><tag k="emergency" v="assembly_point"/><tag k="ref" v="14"/><tag k="name" v="Parcheggio Municipio"/></node><node id="-144" version="1" lat="45.924817" lon="12.569281"><tag k="assembly_point:earthquake" v="yes"/><tag k="emergency" v="assembly_point"/><tag k="ref" v="15"/><tag k="name" v="Parcheggio scuola elementare Tamai"/></node><node id="-145" version="1" lat="45.925619" lon="12.5716"><tag k="assembly_point:earthquake" v="yes"/><tag k="emergency" v="assembly_point"/><tag k="ref" v="16"/><tag k="name" v="Parcheggio via A. Moro"/></node><node id="-146" version="1" lat="45.9023" lon="12.556311"><tag k="assembly_point:earthquake" v="yes"/><tag k="emergency" v="assembly_point"/><tag k="ref" v="17"/><tag k="name" v="Parcheggio supermercato via Taglio"/></node><node id="-147" version="1" lat="45.907964" lon="12.540711"><tag k="assembly_point:earthquake" v="yes"/><tag k="emergency" v="assembly_point"/><tag k="ref" v="18"/><tag k="name" v="Parcheggio ristorante Tinello"/></node><node id="-148" version="1" lat="45.910894" lon="12.533581"><tag k="assembly_point:earthquake" v="yes"/><tag k="emergency" v="assembly_point"/><tag k="ref" v="19"/><tag k="name" v="Parcheggio bar via N. Sauro"/></node><node id="-149" version="1" lat="46.268281" lon="12.517392"><tag k="assembly_point:earthquake" v="yes"/><tag k="emergency" v="assembly_point"/><tag k="ref" v="2"/><tag k="name" v="area Pregulin"/></node><node id="-150" version="1" lat="45.957356" lon="12.63155"><tag k="assembly_point:earthquake" v="yes"/><tag k="emergency" v="assembly_point"/><tag k="ref" v="2"/><tag k="name" v="Chiesa di S. Agnese"/></node><node id="-151" version="1" lat="45.9611" lon="12.626892"><tag k="assembly_point:earthquake" v="yes"/><tag k="emergency" v="assembly_point"/><tag k="ref" v="3"/><tag k="name" v="Plesso scolastico di Roraipiccolo"/></node><node id="-152" version="1" lat="46.268047" lon="12.515189"><tag k="assembly_point:earthquake" v="yes"/><tag k="emergency" v="assembly_point"/><tag k="ref" v="3"/><tag k="name" v="area ex cinema"/></node><node id="-153" version="1" lat="45.957117" lon="12.609442"><tag k="assembly_point:earthquake" v="yes"/><tag k="emergency" v="assembly_point"/><tag k="ref" v="4"/><tag k="name" v="Plesso scolastico Porcia centro"/></node><node id="-154" version="1" lat="45.945078" lon="12.604769"><tag k="assembly_point:earthquake" v="yes"/><tag k="emergency" v="assembly_point"/><tag k="ref" v="5"/><tag k="name" v="Plesso scolastico Palse"/></node><node id="-155" version="1" lat="45.957639" lon="12.587019"><tag k="assembly_point:earthquake" v="yes"/><tag k="emergency" v="assembly_point"/><tag k="ref" v="6"/><tag k="name" v="Chiesa di Pieve"/></node><node id="-156" version="1" lat="45.974422" lon="12.611828"><tag k="assembly_point:earthquake" v="yes"/><tag k="emergency" v="assembly_point"/><tag k="ref" v="7"/><tag k="name" v="Asili S. Antonio"/></node><node id="-157" version="1" lat="45.955706" lon="12.608064"><tag k="assembly_point:earthquake" v="yes"/><tag k="emergency" v="assembly_point"/><tag k="ref" v="8"/><tag k="name" v="Centro socio-assistenziale"/></node><node id="-158" version="1" lat="45.954556" lon="12.631181"><tag k="assembly_point:earthquake" v="yes"/><tag k="emergency" v="assembly_point"/><tag k="ref" v="9"/><tag k="name" v="via Piave"/></node><node id="-159" version="1" lat="45.952256" lon="12.641608"><tag k="assembly_point:earthquake" v="yes"/><tag k="emergency" v="assembly_point"/><tag k="ref" v="10"/><tag k="name" v="Lago Burrida"/></node><node id="-160" version="1" lat="45.915031" lon="12.618547"><tag k="assembly_point:earthquake" v="yes"/><tag k="emergency" v="assembly_point"/><tag k="ref" v="11"/><tag k="name" v="Rondover"/></node><node id="-161" version="1" lat="45.922186" lon="12.613825"><tag k="assembly_point:earthquake" v="yes"/><tag k="emergency" v="assembly_point"/><tag k="ref" v="12"/><tag k="name" v="via Prata"/></node><node id="-162" version="1" lat="45.959019" lon="12.62625"><tag k="assembly_point:earthquake" v="yes"/><tag k="emergency" v="assembly_point"/><tag k="ref" v="13"/><tag k="name" v="Prato antistante villa Dolfin"/></node><node id="-163" version="1" lat="46.268875" lon="12.513347"><tag k="assembly_point:earthquake" v="yes"/><tag k="emergency" v="assembly_point"/><tag k="ref" v="4"/><tag k="name" v="Conca verde"/></node><node id="-164" version="1" lat="45.952689" lon="12.618872"><tag k="assembly_point:earthquake" v="yes"/><tag k="emergency" v="assembly_point"/><tag k="ref" v="14"/><tag k="name" v="via Meduna"/></node><node id="-165" version="1" lat="45.964922" lon="12.606311"><tag k="assembly_point:earthquake" v="yes"/><tag k="emergency" v="assembly_point"/><tag k="ref" v="15"/><tag k="name" v="Sant'Angelo"/></node><node id="-166" version="1" lat="45.956172" lon="12.609358"><tag k="assembly_point:earthquake" v="yes"/><tag k="emergency" v="assembly_point"/><tag k="ref" v="16"/><tag k="name" v="Area Giglio"/></node><node id="-167" version="1" lat="46.268083" lon="12.510228"><tag k="assembly_point:earthquake" v="yes"/><tag k="emergency" v="assembly_point"/><tag k="ref" v="5"/><tag k="name" v="campo sportivo"/></node><node id="-168" version="1" lat="46.272" lon="12.547956"><tag k="assembly_point:earthquake" v="yes"/><tag k="emergency" v="assembly_point"/><tag k="ref" v="9"/><tag k="name" v="Lesis"/></node><node id="-169" version="1" lat="45.940292" lon="12.647811"><tag k="assembly_point:earthquake" v="yes"/><tag k="emergency" v="assembly_point"/><tag k="ref" v="5"/><tag k="name" v="Area verde Via Dogana"/></node><node id="-170" version="1" lat="45.96275" lon="12.649389"><tag k="assembly_point:earthquake" v="yes"/><tag k="emergency" v="assembly_point"/><tag k="ref" v="14"/><tag k="name" v="014 Area verde Via Cividale"/></node><node id="-171" version="1" lat="46.268353" lon="12.504222"><tag k="assembly_point:earthquake" v="yes"/><tag k="emergency" v="assembly_point"/><tag k="ref" v="10"/><tag k="name" v="ex Villaggio Vajont"/></node><node id="-172" version="1" lat="45.971619" lon="12.646814"><tag k="assembly_point:earthquake" v="yes"/><tag k="emergency" v="assembly_point"/><tag k="ref" v="17"/><tag k="name" v="Area verde Via Brigata Lupi di Toscana"/></node><node id="-173" version="1" lat="45.957036" lon="12.648372"><tag k="assembly_point:earthquake" v="yes"/><tag k="emergency" v="assembly_point"/><tag k="ref" v="19"/><tag k="name" v="019 Parcheggio stadio &quot;O. Bottecchia&quot;"/></node><node id="-174" version="1" lat="46.265894" lon="12.475969"><tag k="assembly_point:earthquake" v="yes"/><tag k="emergency" v="assembly_point"/><tag k="ref" v="15"/><tag k="name" v="Pinedo"/></node><node id="-175" version="1" lat="46.247142" lon="12.471361"><tag k="assembly_point:earthquake" v="yes"/><tag k="emergency" v="assembly_point"/><tag k="ref" v="18"/><tag k="name" v="Cellino di Sopra"/></node><node id="-176" version="1" lat="45.967042" lon="12.638708"><tag k="assembly_point:earthquake" v="yes"/><tag k="emergency" v="assembly_point"/><tag k="ref" v="41"/><tag k="name" v="Area verde Via Auronzo"/></node><node id="-177" version="1" lat="45.970439" lon="12.640767"><tag k="assembly_point:earthquake" v="yes"/><tag k="emergency" v="assembly_point"/><tag k="ref" v="42"/><tag k="name" v="Area verde Via Locatelli"/></node><node id="-178" version="1" lat="45.965083" lon="12.630106"><tag k="assembly_point:earthquake" v="yes"/><tag k="emergency" v="assembly_point"/><tag k="ref" v="43"/><tag k="name" v="Parcheggio Via Pitter"/></node><node id="-179" version="1" lat="45.964283" lon="12.640881"><tag k="assembly_point:earthquake" v="yes"/><tag k="emergency" v="assembly_point"/><tag k="ref" v="44"/><tag k="name" v="Area verde Via Casarsa"/></node><node id="-180" version="1" lat="45.97205" lon="12.636481"><tag k="assembly_point:earthquake" v="yes"/><tag k="emergency" v="assembly_point"/><tag k="ref" v="45"/><tag k="name" v="Allargamento carreggiata di Via Misurina"/></node><node id="-181" version="1" lat="45.969661" lon="12.637514"><tag k="assembly_point:earthquake" v="yes"/><tag k="emergency" v="assembly_point"/><tag k="ref" v="46"/><tag k="name" v="Parcheggio Via Bassano"/></node><node id="-182" version="1" lat="45.978678" lon="12.642994"><tag k="assembly_point:earthquake" v="yes"/><tag k="emergency" v="assembly_point"/><tag k="ref" v="48"/><tag k="name" v="Area verde privata Via Tiro a Segno"/></node><node id="-183" version="1" lat="45.958261" lon="12.644117"><tag k="assembly_point:earthquake" v="yes"/><tag k="emergency" v="assembly_point"/><tag k="ref" v="51"/><tag k="name" v="Parcheggio Via Latisana"/></node><node id="-184" version="1" lat="45.959064" lon="12.647031"><tag k="assembly_point:earthquake" v="yes"/><tag k="emergency" v="assembly_point"/><tag k="ref" v="52"/><tag k="name" v="Parcheggio Via San Vito"/></node><node id="-185" version="1" lat="46.267903" lon="12.513847"><tag k="assembly_point:earthquake" v="yes"/><tag k="emergency" v="assembly_point"/><tag k="ref" v="19"/><tag k="name" v="Dolomiti"/></node><node id="-186" version="1" lat="45.959261" lon="12.641942"><tag k="assembly_point:earthquake" v="yes"/><tag k="emergency" v="assembly_point"/><tag k="ref" v="53"/><tag k="name" v="Parcheggio Via Tessitura"/></node><node id="-187" version="1" lat="45.971472" lon="12.643961"><tag k="assembly_point:earthquake" v="yes"/><tag k="emergency" v="assembly_point"/><tag k="ref" v="58"/><tag k="name" v="Parcheggio palestra &quot;F. Gallini&quot;"/></node><node id="-188" version="1" lat="45.966417" lon="12.643894"><tag k="assembly_point:earthquake" v="yes"/><tag k="emergency" v="assembly_point"/><tag k="ref" v="59"/><tag k="name" v="Area verde Viale Grigoletti"/></node><node id="-189" version="1" lat="45.932844" lon="12.643022"><tag k="assembly_point:earthquake" v="yes"/><tag k="emergency" v="assembly_point"/><tag k="ref" v="60"/><tag k="name" v="Parcheggio Via Chiesa di Vallenoncello"/></node><node id="-190" version="1" lat="45.928303" lon="12.640014"><tag k="assembly_point:earthquake" v="yes"/><tag k="emergency" v="assembly_point"/><tag k="ref" v="61"/><tag k="name" v="Parcheggio palestra di Vallenoncello"/></node><node id="-191" version="1" lat="45.992536" lon="12.634389"><tag k="assembly_point:earthquake" v="yes"/><tag k="emergency" v="assembly_point"/><tag k="ref" v="64"/><tag k="name" v="Parcheggio esterno Polo Tecnologico di Pordenone"/></node><node id="-192" version="1" lat="45.978567" lon="12.564089"><tag k="assembly_point:earthquake" v="yes"/><tag k="emergency" v="assembly_point"/><tag k="ref" v="1"/><tag k="name" v="Piazzale San Luca"/></node><node id="-193" version="1" lat="45.988711" lon="12.603181"><tag k="assembly_point:earthquake" v="yes"/><tag k="emergency" v="assembly_point"/><tag k="ref" v="2"/><tag k="name" v="ceolini via tasso"/></node><node id="-194" version="1" lat="45.99765" lon="12.534044"><tag k="assembly_point:earthquake" v="yes"/><tag k="emergency" v="assembly_point"/><tag k="ref" v="3"/><tag k="name" v="Ranzano Via Verdi"/></node><node id="-195" version="1" lat="45.977886" lon="12.502353"><tag k="assembly_point:earthquake" v="yes"/><tag k="emergency" v="assembly_point"/><tag k="ref" v="4"/><tag k="name" v="Nave Via Lirutti"/></node><node id="-196" version="1" lat="45.933394" lon="12.538281"><tag k="assembly_point:earthquake" v="yes"/><tag k="emergency" v="assembly_point"/><tag k="ref" v="5"/><tag k="name" v="Camolli Via Casut"/></node><node id="-197" version="1" lat="45.993578" lon="12.55535"><tag k="assembly_point:earthquake" v="yes"/><tag k="emergency" v="assembly_point"/><tag k="ref" v="6"/><tag k="name" v="Vigonovo Via Baracca - campo sportivo"/></node><node id="-198" version="1" lat="45.973831" lon="12.589758"><tag k="assembly_point:earthquake" v="yes"/><tag k="emergency" v="assembly_point"/><tag k="ref" v="7"/><tag k="name" v="Ronche via Percoto - Via Custoza"/></node><node id="-199" version="1" lat="45.9731" lon="12.573122"><tag k="assembly_point:earthquake" v="yes"/><tag k="emergency" v="assembly_point"/><tag k="ref" v="8"/><tag k="name" v="Fontanafredda Via Pastrengo - Via Don Piero della Toffola"/></node><node id="-200" version="1" lat="45.970331" lon="12.572361"><tag k="assembly_point:earthquake" v="yes"/><tag k="emergency" v="assembly_point"/><tag k="ref" v="9"/><tag k="name" v="Fontanafredda Via IV Novembre - Via dei Mille"/></node><node id="-201" version="1" lat="45.976972" lon="12.510369"><tag k="assembly_point:earthquake" v="yes"/><tag k="emergency" v="assembly_point"/><tag k="ref" v="11"/><tag k="name" v="Nave Via Casera Chions"/></node><node id="-202" version="1" lat="45.991969" lon="12.498725"><tag k="assembly_point:earthquake" v="yes"/><tag k="emergency" v="assembly_point"/><tag k="ref" v="12"/><tag k="name" v="Nave Via Valstort"/></node><node id="-203" version="1" lat="45.985167" lon="12.510914"><tag k="assembly_point:earthquake" v="yes"/><tag k="emergency" v="assembly_point"/><tag k="ref" v="13"/><tag k="name" v="Via Bodegan"/></node><node id="-204" version="1" lat="45.977961" lon="12.525686"><tag k="assembly_point:earthquake" v="yes"/><tag k="emergency" v="assembly_point"/><tag k="ref" v="14"/><tag k="name" v="La Croce - Via Brigata Osoppo"/></node><node id="-205" version="1" lat="45.998636" lon="12.539217"><tag k="assembly_point:earthquake" v="yes"/><tag k="emergency" v="assembly_point"/><tag k="ref" v="15"/><tag k="name" v="Ranzano - Parcheggio Via Crosetta"/></node><node id="-206" version="1" lat="45.993242" lon="12.544481"><tag k="assembly_point:earthquake" v="yes"/><tag k="emergency" v="assembly_point"/><tag k="ref" v="16"/><tag k="name" v="Via Veronese"/></node><node id="-207" version="1" lat="45.991228" lon="12.540311"><tag k="assembly_point:earthquake" v="yes"/><tag k="emergency" v="assembly_point"/><tag k="ref" v="17"/><tag k="name" v="Via G. Oberdan"/></node><node id="-208" version="1" lat="45.985361" lon="12.554856"><tag k="assembly_point:earthquake" v="yes"/><tag k="emergency" v="assembly_point"/><tag k="ref" v="18"/><tag k="name" v="Via Puccini"/></node><node id="-209" version="1" lat="45.978753" lon="12.570417"><tag k="assembly_point:earthquake" v="yes"/><tag k="emergency" v="assembly_point"/><tag k="ref" v="19"/><tag k="name" v="PEEP"/></node><node id="-210" version="1" lat="45.974897" lon="12.561506"><tag k="assembly_point:earthquake" v="yes"/><tag k="emergency" v="assembly_point"/><tag k="ref" v="20"/><tag k="name" v="Via Stellini - Via Del Macello"/></node><node id="-211" version="1" lat="45.972539" lon="12.579667"><tag k="assembly_point:earthquake" v="yes"/><tag k="emergency" v="assembly_point"/><tag k="ref" v="21"/><tag k="name" v="Parcheggio Via Del Cesiol"/></node><node id="-212" version="1" lat="45.986336" lon="12.586625"><tag k="assembly_point:earthquake" v="yes"/><tag k="emergency" v="assembly_point"/><tag k="ref" v="22"/><tag k="name" v="Via P. Zorutti"/></node><node id="-213" version="1" lat="45.9579" lon="12.586594"><tag k="assembly_point:earthquake" v="yes"/><tag k="emergency" v="assembly_point"/><tag k="ref" v="23"/><tag k="name" v="Via Pieve"/></node><node id="-214" version="1" lat="45.952747" lon="12.536592"><tag k="assembly_point:earthquake" v="yes"/><tag k="emergency" v="assembly_point"/><tag k="ref" v="24"/><tag k="name" v="Via Palmanova"/></node><node id="-215" version="1" lat="45.957219" lon="12.562953"><tag k="assembly_point:earthquake" v="yes"/><tag k="emergency" v="assembly_point"/><tag k="ref" v="25"/><tag k="name" v="Via Brugnera"/></node><node id="-216" version="1" lat="45.981933" lon="12.569964"><tag k="assembly_point:earthquake" v="yes"/><tag k="emergency" v="assembly_point"/><tag k="ref" v="29"/><tag k="name" v="Via Anello del Sole"/></node><node id="-217" version="1" lat="45.980969" lon="12.568114"><tag k="assembly_point:earthquake" v="yes"/><tag k="emergency" v="assembly_point"/><tag k="ref" v="30"/><tag k="name" v="Zona sportiva"/></node><node id="-218" version="1" lat="45.975558" lon="12.572817"><tag k="assembly_point:earthquake" v="yes"/><tag k="emergency" v="assembly_point"/><tag k="ref" v="31"/><tag k="name" v="Fontanafredda"/></node><node id="-219" version="1" lat="45.991219" lon="12.547997"><tag k="assembly_point:earthquake" v="yes"/><tag k="emergency" v="assembly_point"/><tag k="ref" v="32"/><tag k="name" v="Vigonovo 1"/></node><node id="-220" version="1" lat="45.988183" lon="12.55445"><tag k="assembly_point:earthquake" v="yes"/><tag k="emergency" v="assembly_point"/><tag k="ref" v="33"/><tag k="name" v="bivio via Leopardi - strada Col di riva"/></node><node id="-221" version="1" lat="45.973475" lon="12.565622"><tag k="assembly_point:earthquake" v="yes"/><tag k="emergency" v="assembly_point"/><tag k="ref" v="34"/><tag k="name" v="Laterale Via Grigoletti - ambulatorio"/></node><node id="-222" version="1" lat="45.975131" lon="12.568189"><tag k="assembly_point:earthquake" v="yes"/><tag k="emergency" v="assembly_point"/><tag k="ref" v="35"/><tag k="name" v="Via Del Parco"/></node><node id="-223" version="1" lat="45.978692" lon="12.578428"><tag k="assembly_point:earthquake" v="yes"/><tag k="emergency" v="assembly_point"/><tag k="ref" v="36"/><tag k="name" v="Via Carducci"/></node><node id="-224" version="1" lat="45.992158" lon="12.571011"><tag k="assembly_point:earthquake" v="yes"/><tag k="emergency" v="assembly_point"/><tag k="ref" v="37"/><tag k="name" v="Via Zorutti - Gortani"/></node><node id="-225" version="1" lat="46.008025" lon="12.562939"><tag k="assembly_point:earthquake" v="yes"/><tag k="emergency" v="assembly_point"/><tag k="ref" v="38"/><tag k="name" v="Via Bellini"/></node><node id="-226" version="1" lat="45.990514" lon="12.552378"><tag k="assembly_point:earthquake" v="yes"/><tag k="emergency" v="assembly_point"/><tag k="ref" v="39"/><tag k="name" v="Via del Var"/></node><node id="-227" version="1" lat="45.990583" lon="12.600114"><tag k="assembly_point:earthquake" v="yes"/><tag k="emergency" v="assembly_point"/><tag k="ref" v="40"/><tag k="name" v="Cesare Battisti"/></node></osm>